<?xml version="1.0" encoding="UTF-8"?>
<kml xmlns="http://www.opengis.net/kml/2.2" xmlns:gx="http://www.google.com/kml/ext/2.2" xmlns:kml="http://www.opengis.net/kml/2.2" xmlns:atom="http://www.w3.org/2005/Atom">
<Document>
	<name>attraction_mwi.kml</name>
	<StyleMap id="m_ylw-pushpin">
		<Pair>
			<key>normal</key>
			<styleUrl>#s_ylw-pushpin</styleUrl>
		</Pair>
		<Pair>
			<key>highlight</key>
			<styleUrl>#s_ylw-pushpin_hl</styleUrl>
		</Pair>
	</StyleMap>
	<Style id="s_ylw-pushpin">
		<IconStyle>
			<scale>1.1</scale>
			<Icon>
				<href>http://maps.google.com/mapfiles/kml/pushpin/ylw-pushpin.png</href>
			</Icon>
			<hotSpot x="20" y="2" xunits="pixels" yunits="pixels"/>
		</IconStyle>
	</Style>
	<Style id="s_ylw-pushpin_hl">
		<IconStyle>
			<scale>1.3</scale>
			<Icon>
				<href>http://maps.google.com/mapfiles/kml/pushpin/ylw-pushpin.png</href>
			</Icon>
			<hotSpot x="20" y="2" xunits="pixels" yunits="pixels"/>
		</IconStyle>
	</Style>
	<Placemark>
		<name>Polígono sin título</name>
		<snippet></snippet>
		<styleUrl>#m_ylw-pushpin</styleUrl>
		<MultiGeometry>
			<Polygon>
				<tessellate>1</tessellate>
				<outerBoundaryIs>
					<LinearRing>
						<coordinates>
							33.91707798214861,-11.49458408780955,0 33.88514020804262,-11.51254198738481,0 33.86689904763814,-11.52600250638227,0 33.85321436735658,-11.53497617453147,0 33.83495877849197,-11.54395209487001,0 33.81671588098524,-11.55740755790551,0 33.80303053896613,-11.5663775818299,0 33.78935772307951,-11.57982683098025,0 33.77111376453497,-11.59327681041762,0 33.76199976016704,-11.61119070404652,0 33.74834135948721,-11.62911435498972,0 33.74838620981004,-11.6470271374093,0 33.74382821683882,-11.66493187204683,0 33.75761185257877,-11.6828412046203,0 33.77131793637279,-11.69178044575982,0 33.7804974615408,-11.71415511111299,0 33.78054274990242,-11.73206126382585,0 33.78514984863956,-11.74996130668888,0 33.78519514130998,-11.76786454294928,0 33.78523845693564,-11.79471397835691,0 33.78525861056805,-11.81261184026101,0 33.79439985393875,-11.82602765656737,0 33.81266416585522,-11.83496136037222,0 33.83549562316271,-11.84389029195892,0 33.85376012068833,-11.84834790999722,0 33.87654496215899,-11.84384773005197,0 33.89477924229455,-11.83039953057899,0 33.8947895237775,-11.80802400206372,0 33.89932167616668,-11.78563897116745,0 33.89928460592033,-11.76773334504302,0 33.88555458880602,-11.75432064354024,0 33.87180285159394,-11.73195269263766,0 33.86720357712259,-11.71852606211102,0 33.86261634034162,-11.6961524440245,0 33.86260204355744,-11.67377536549265,0 33.86258744739177,-11.65139889937675,0 33.87628663472574,-11.62901109051338,0 33.89456027899514,-11.61556911258674,0 33.9082687986641,-11.61108074316142,0 33.921976595118,-11.60659175442423,0 33.94023415252733,-11.58419430888511,0 33.95393245151111,-11.57075625633328,0 33.96302224740056,-11.5483582483477,0 33.9675600181267,-11.53491843407462,0 33.96749111004733,-11.51251585868287,0 33.96740843199085,-11.4856288155486,0 33.95364388806518,-11.47665970935127,0 33.94448469723944,-11.47665563425471,0 33.91707798214861,-11.49458408780955,0 
						</coordinates>
					</LinearRing>
				</outerBoundaryIs>
			</Polygon>
			<Polygon>
				<tessellate>1</tessellate>
				<outerBoundaryIs>
					<LinearRing>
						<coordinates>
							33.76111425317831,-12.52106922285923,0 33.77942990351487,-12.53008740922244,0 33.7931264697199,-12.54811270738099,0 33.80681216551925,-12.57064878403906,0 33.81135376527403,-12.58417135250844,0 33.82047283806426,-12.60220722397458,0 33.82040891400947,-12.62024216910113,0 33.83411228632289,-12.64279980309345,0 33.85243362132483,-12.660854113388,0 33.86158556229046,-12.67439241103381,0 33.87532465562391,-12.69244786477016,0 33.87991275002766,-12.71044765609193,0 33.88457140173083,-12.72835312086918,0 33.88463795657111,-12.75973326879745,0 33.88467622284254,-12.77766303462297,0 33.88934487031636,-12.80004314688438,0 33.89402328695161,-12.82690118977252,0 33.8986204907378,-12.85388808314846,0 33.90773270984922,-12.87652995521517,0 33.91220106634156,-12.90375866530438,0 33.92130485354949,-12.92645471943831,0 33.94418791388286,-12.95826885242384,0 33.95328081160851,-12.98555471970625,0 33.97161894278288,-13.01733778357134,0 33.97622534524225,-13.02637100578456,0 33.9762154128522,-13.04443334396857,0 33.99004055405619,-13.07154039085435,0 34.00387055017615,-13.10317058139843,0 34.01767229314557,-13.12135177034799,0 34.03148350778543,-13.13501161203437,0 34.05912195230672,-13.16234073593367,0 34.0775600949265,-13.18056707362625,0 34.09600936074592,-13.19426326847442,0 34.1098596866464,-13.20791079592975,0 34.13297362672227,-13.21244972321815,0 34.15609252021255,-13.21244418838591,0 34.16534291461848,-13.1942722382419,0 34.16996738658341,-13.18064732653644,0 34.16996775753134,-13.15795320014709,0 34.16996792572498,-13.13072843661505,0 34.16996816586897,-13.11258340955067,0 34.1745868155112,-13.09444023025619,0 34.17458599932838,-13.08083673214025,0 34.17459081363296,-13.04908350912291,0 34.1745947628419,-13.02187704610337,0 34.17459558147278,-13.01734356135394,0 34.1699777950129,-12.99470592168601,0 34.15613027067459,-12.96305189105645,0 34.14231332112561,-12.94038667051495,0 34.12392541343817,-12.89957547631262,0 34.10553418341897,-12.87690475049954,0 34.09176179457138,-12.85423617422675,0 34.08716890081862,-12.84969809250102,0 34.07340152832025,-12.81804017192665,0 34.06420855081284,-12.79548334893602,0 34.06420947205352,-12.77295251078164,0 34.06421058725775,-12.7459206580642,0 34.06421153913612,-12.71889427754431,0 34.0642081880237,-12.69188182530097,0 34.0641636948696,-12.67395372227182,0 34.05491240286957,-12.65604951987218,0 34.05027092821437,-12.62911811914816,0 34.03181595630273,-12.59773232315225,0 34.01799606460103,-12.58878623376678,0 33.99958476563626,-12.57083863653614,0 33.99040726267768,-12.5573311556438,0 33.9766395732579,-12.54382463904949,0 33.96287599632919,-12.53031981966633,0 33.94452536594468,-12.51681547601158,0 33.92619698576068,-12.48981649870191,0 33.90785762338276,-12.48979291188798,0 33.88952128543139,-12.48976760624969,0 33.86661225969818,-12.4852369359151,0 33.84828257024667,-12.48520920821244,0 33.82079325675938,-12.48516527128152,0 33.81621201027247,-12.48515769211127,0 33.76111425317831,-12.52106922285923,0 
						</coordinates>
					</LinearRing>
				</outerBoundaryIs>
			</Polygon>
			<Polygon>
				<tessellate>1</tessellate>
				<outerBoundaryIs>
					<LinearRing>
						<coordinates>
							33.27540685823794,-12.58561037296387,0 33.26598551826098,-12.60369253077431,0 33.24724961917545,-12.62182331010051,0 33.22850319346729,-12.63996015814205,0 33.2098196695078,-12.64906812012154,0 33.18650893325002,-12.65367904205712,0 33.15856333741611,-12.65379257586651,0 33.13992684864007,-12.653866655359,0 33.12594628895555,-12.65392137554489,0 33.10249194163842,-12.66758884308688,0 33.08839642545624,-12.67670039260643,0 33.07901420976053,-12.6812660884726,0 33.05546347266597,-12.70398241491199,0 33.04121550632322,-12.72668211027744,0 33.02698233831576,-12.74487582005177,0 33.02215294887625,-12.75849514966882,0 33.01253912641072,-12.78120927153082,0 33.00276688610384,-12.81753914121292,0 32.99792909009764,-12.83117472638269,0 32.99752162182262,-12.86297028169627,0 32.99722926577684,-12.88569043829355,0 32.99705366416268,-12.8993256925892,0 32.99664440224164,-12.93115155723231,0 32.99652745811117,-12.94024719467724,0 33.00550506592244,-12.97202332167651,0 33.01008383258036,-12.98108840185775,0 33.0285660171231,-13.00370493838839,0 33.04230772981521,-13.03090364919843,0 33.05152669695089,-13.04448610759759,0 33.07004870118195,-13.06256937077752,0 33.09813708844192,-13.06239153195878,0 33.11690475160741,-13.05772396092105,0 33.14979212713639,-13.04387316785617,0 33.16400632172332,-13.02560145870783,0 33.17821202565356,-13.00733665677097,0 33.18306660300863,-12.98913772532439,0 33.1879643144496,-12.96640339665315,0 33.19290460639649,-12.93913769911343,0 33.19775216656211,-12.92095763033865,0 33.19806564572544,-12.88919996139093,0 33.19842613658273,-12.85291918822965,0 33.19887776688598,-12.80758993133843,0 33.19920958609289,-12.77586361580413,0 33.19939927094278,-12.75774038614042,0 33.2090019268404,-12.73051938986664,0 33.22316167967318,-12.71234361747543,0 33.23269162017937,-12.68967885150946,0 33.24686300821511,-12.667006394302,0 33.25168054881294,-12.64890389158582,0 33.26112841076723,-12.63079816804072,0 33.27061015549756,-12.60818163340788,0 33.28008728314769,-12.58108013811815,0 33.27540685823794,-12.58561037296387,0 
						</coordinates>
					</LinearRing>
				</outerBoundaryIs>
			</Polygon>
			<Polygon>
				<tessellate>1</tessellate>
				<outerBoundaryIs>
					<LinearRing>
						<coordinates>
							33.42681493999149,-14.20455634591788,0 33.42677942852116,-14.21038374377192,0 33.42663735717461,-14.23369639920961,0 33.43252485695465,-14.25699127006132,0 33.45054442833858,-14.26858390547959,0 33.46853067561602,-14.28600410166032,0 33.47442672219731,-14.30930142632817,0 33.48029639510377,-14.33842889872931,0 33.48015395079718,-14.36757246520783,0 33.49211576237933,-14.39083024860655,0 33.51011834194112,-14.41405614858346,0 33.54030195397229,-14.41389554207674,0 33.57050122628558,-14.40790294566233,0 33.59465692858365,-14.40194194859705,0 33.61884922762798,-14.38432817979851,0 33.61896128377304,-14.35520129641654,0 33.61306841633238,-14.32028769822806,0 33.60713247531362,-14.29702505979171,0 33.58914596836892,-14.27382383314395,0 33.57716486066049,-14.25641435558848,0 33.54116087656282,-14.22744492125618,0 33.53519901177473,-14.2158176394824,0 33.51722378099938,-14.19841098679368,0 33.48114875381084,-14.18689124246838,0 33.45698241764661,-14.19862688222666,0 33.43886924399306,-14.20451562387437,0 33.42681493999149,-14.20455634591788,0 
						</coordinates>
					</LinearRing>
				</outerBoundaryIs>
			</Polygon>
			<Polygon>
				<tessellate>1</tessellate>
				<outerBoundaryIs>
					<LinearRing>
						<coordinates>
							35.07046872969495,-13.76862748870012,0 35.07660180904161,-13.79179096183041,0 35.08273769981692,-13.81495991991549,0 35.09478476917501,-13.83228549479479,0 35.10092676132479,-13.85546286014756,0 35.11312354419366,-13.89021652974896,0 35.11927258169511,-13.91340700096939,0 35.12547303189277,-13.94241427711015,0 35.13167693288358,-13.97142991327612,0 35.13206699873069,-14.01794906222042,0 35.13221343014268,-14.03540027224222,0 35.13840376447445,-14.06439618603609,0 35.14465075785684,-14.09922839875385,0 35.15090102408902,-14.13407010794868,0 35.15117668070595,-14.16895393247318,0 35.15743119827781,-14.20381052254066,0 35.16359072415776,-14.22702608128051,0 35.17582183338857,-14.26182941696657,0 35.17591571644985,-14.27346659353497,0 35.18820182072817,-14.31409874943612,0 35.20049501713927,-14.354740047106,0 35.21266484724094,-14.37796233634761,0 35.21886509248961,-14.40126260317194,0 35.24303190317331,-14.42443945674714,0 35.26698243372941,-14.42426558465198,0 35.29691955612918,-14.42404486597144,0 35.32086844681226,-14.42386560010209,0 35.34469433989189,-14.41201018552059,0 35.3443889602004,-14.38283190005791,0 35.34408380404861,-14.3536627988081,0 35.34377870756837,-14.32450308790373,0 35.33145478911897,-14.28961375899783,0 35.32511628187599,-14.25469218987164,0 35.31892111402556,-14.23146880324672,0 35.31268364959925,-14.20245151612726,0 35.30639568823154,-14.16762682670821,0 35.30628950715833,-14.15600244864242,0 35.30607700825387,-14.13275682411358,0 35.30591764549149,-14.11532516504797,0 35.28776105949512,-14.08643339558999,0 35.28158934642276,-14.06325004511806,0 35.26336080330255,-14.02850614358861,0 35.23912814292617,-13.98800698809119,0 35.22693655425325,-13.95904444558792,0 35.21491221515441,-13.94751924974966,0 35.20273115226591,-13.91856598386411,0 35.18470476238695,-13.90128150445758,0 35.16653082689215,-13.86657831808395,0 35.14251401744502,-13.84353915941429,0 35.12450692541204,-13.82626059227462,0 35.1124097583785,-13.80313626551317,0 35.06456182814716,-13.77447072733012,0 35.07046872969495,-13.76862748870012,0 
						</coordinates>
					</LinearRing>
				</outerBoundaryIs>
			</Polygon>
			<Polygon>
				<tessellate>1</tessellate>
				<outerBoundaryIs>
					<LinearRing>
						<coordinates>
							35.84657926379533,-14.97360537892954,0 35.86459129339433,-14.96182043480425,0 35.87629699036258,-14.93819185590203,0 35.86982782387978,-14.91461975346012,0 35.84526027347471,-14.89693647911051,0 35.82077799244528,-14.88510478990444,0 35.79024454145862,-14.87326458532409,0 35.75982668047546,-14.86731577442283,0 35.72943872026126,-14.85565768895686,0 35.6931789647666,-14.85574115127741,0 35.6629702475998,-14.8558063212382,0 35.63880844690574,-14.85585554820869,0 35.61465077981236,-14.85590232308666,0 35.57856222370076,-14.86768328866627,0 35.54851298258883,-14.87944752802543,0 35.53047079310409,-14.8853317997742,0 35.50646191509155,-14.8970858368119,0 35.47647408807131,-14.90897915785578,0 35.44654473229533,-14.92672751886777,0 35.42269426454018,-14.95029959526323,0 35.4230021683866,-14.97960155891631,0 35.43530514277807,-15.00298159372597,0 35.45364286068477,-15.02633222974985,0 35.48405094006652,-15.04961812881423,0 35.50824315621083,-15.05534564228204,0 35.53853644639557,-15.06119045168775,0 35.58696614120456,-15.06126417757883,0 35.61121968980691,-15.06136105090685,0 35.64137295145323,-15.04967962814786,0 35.66537371981529,-15.03207086731502,0 35.70159971442783,-15.02039663270224,0 35.71962269848133,-15.00865713524359,0 35.76221668221904,-15.01468602578711,0 35.7986650844479,-15.01479132339599,0 35.81689598824019,-15.01484165067947,0 35.84657926379533,-14.97360537892954,0 
						</coordinates>
					</LinearRing>
				</outerBoundaryIs>
			</Polygon>
			<Polygon>
				<tessellate>1</tessellate>
				<outerBoundaryIs>
					<LinearRing>
						<coordinates>
							34.75003311977667,-15.23336082899304,0 34.74995855305919,-15.21600812875196,0 34.72593001302061,-15.19876074241816,0 34.70785764995801,-15.16992335009002,0 34.67793339672058,-15.17004918353695,0 34.64803412725193,-15.17595230920751,0 34.63017881276928,-15.20493060110089,0 34.63027309863693,-15.23384267667983,0 34.6304426412053,-15.2858958669013,0 34.63052126516848,-15.30903416305387,0 34.63066136832292,-15.34953084858703,0 34.6307414155808,-15.37267503663466,0 34.62492690918604,-15.42477765037564,0 34.61906915259291,-15.46531310626105,0 34.60116438579945,-15.50593382073238,0 34.58921091742579,-15.52915825626791,0 34.57724281482081,-15.54658742493575,0 34.54729413631393,-15.58146607115668,0 34.52331102610626,-15.59892835659242,0 34.49932767223222,-15.62219173441775,0 34.46933614555279,-15.65127141425129,0 34.4513262500485,-15.66292068305815,0 34.41517582416327,-15.69794331912796,0 34.38502128883933,-15.73295172365538,0 34.3669114048067,-15.76210189483793,0 34.33065612257154,-15.81462026594469,0 34.31857625351555,-15.8437438524682,0 34.31253902893935,-15.87283667354898,0 34.31254765384014,-15.93097709967148,0 34.31254777303218,-15.96587930482517,0 34.31253009688727,-15.98335518630834,0 34.3124835078293,-16.02997261774917,0 34.31245414396016,-16.05912005641687,0 34.31240158941237,-16.11160767785667,0 34.31237239405186,-16.14077983379305,0 34.31838213267547,-16.18161197442768,0 34.33647228038311,-16.24579629736522,0 34.3364657379304,-16.25164161041433,0 34.35461567302085,-16.29829094562707,0 34.39100532451275,-16.35063346302741,0 34.39707527302771,-16.37396877618322,0 34.43349223263917,-16.40293995968058,0 34.46384004295695,-16.43198158955175,0 34.5063109219034,-16.46687122436686,0 34.53059615564251,-16.4901505846413,0 34.56096658557945,-16.51925131639302,0 34.58524202426105,-16.53085928030834,0 34.59738977361929,-16.54842360106779,0 34.63383186390397,-16.57761704928232,0 34.67028758794293,-16.60093355855497,0 34.71284763587666,-16.63009736586671,0 34.74934499678822,-16.65341452067847,0 34.78584178279449,-16.67084529723324,0 34.81627197294871,-16.68835194152474,0 34.85278335638488,-16.70590480776732,0 34.86495811028301,-16.7117556365117,0 34.88323756285573,-16.72347727044472,0 34.93802062185809,-16.74096609385549,0 34.96240645389173,-16.7524326664571,0 34.99283754710311,-16.75797231613377,0 35.03545922773143,-16.76923110617561,0 35.05976924801045,-16.76897023365921,0 35.10833784842764,-16.76258806035721,0 35.12652023052858,-16.75653508222007,0 35.15077123674846,-16.75041376806386,0 35.1628760421478,-16.74445793255105,0 35.18699660222422,-16.72089514040594,0 35.1927548560267,-16.67991181605823,0 35.19869060096717,-16.66232736678762,0 35.19841903153159,-16.62724680692483,0 35.19823812620323,-16.60386423444892,0 35.1979667012894,-16.56879735005637,0 35.1977407363801,-16.53958129108603,0 35.19143711646083,-16.51030580718825,0 35.19123145074314,-16.4867571843065,0 35.17885914274249,-16.45741737973739,0 35.14818665016525,-16.41056344826546,0 35.12983824264238,-16.38714723838795,0 35.1175077366605,-16.35783951932305,0 35.09305150683754,-16.32273745657341,0 35.06249713899184,-16.27595994939272,0 35.04414865209637,-16.24113231765632,0 35.02588539849059,-16.21801750228598,0 35.01362903310976,-16.18901731022811,0 34.98927080294195,-16.15427797802018,0 34.96482773058177,-16.10200805679766,0 34.95263138491499,-16.07879615625435,0 34.93437695356747,-16.04981391229225,0 34.90998430615634,-15.99758378927932,0 34.89781096324372,-15.97438880243047,0 34.885642903477,-15.95119758010312,0 34.87950662818976,-15.92795982577639,0 34.86734778707392,-15.90477708358307,0 34.86119230372097,-15.87573267756585,0 34.8368946080581,-15.82941323216735,0 34.82471536877264,-15.80049594294775,0 34.81852495335713,-15.76576707409551,0 34.81239341570687,-15.74262834235134,0 34.8061796890718,-15.70210870778671,0 34.806039781323,-15.67314193929552,0 34.80592800903298,-15.6499699198874,0 34.80581618256038,-15.62679951072603,0 34.8057042327168,-15.60363066735462,0 34.80545274374793,-15.55150594912659,0 34.80536898757607,-15.53413263175667,0 34.80514562254328,-15.48780839111069,0 34.80503451713187,-15.46464857578472,0 34.80479101617489,-15.4125351239498,0 34.80460160379905,-15.37200965766839,0 34.80438531890078,-15.32570440703299,0 34.75003311977667,-15.23336082899304,0 
						</coordinates>
					</LinearRing>
				</outerBoundaryIs>
			</Polygon>
		</MultiGeometry>
		<atom:link rel="app" href="https://www.google.com/earth/about/versions/#earth-pro" title="Google Earth Pro 7.3.7.1155"></atom:link>
	</Placemark>
</Document>
</kml>
